OBJECT C                
1 57582U 23117C   25250.32732186  .00010442  00000+0  39226-3 0  9992
2 57582  97.4394 324.9560 0009292 158.4885 201.6746 15.27330110115203
